{
    "links": {
        "self": "http://www.neowsapp.com/rest/v1/neo/3788045?api_key=iIulBulltgU6a56xZRHN4H3l9WmuAYTsLGpBGhQ2"
    },
    "id": "3788045",
    "neo_reference_id": "3788045",
    "name": "(2017 UF6)",
    "designation": "2017 UF6",
    "nasa_jpl_url": "http://ssd.jpl.nasa.gov/sbdb.cgi?sstr=3788045",
    "absolute_magnitude_h": 23.4,
    "estimated_diameter": {
        "kilometers": {
            "estimated_diameter_min": 0.0555334912,
            "estimated_diameter_max": 0.1241766613
        },
        "meters": {
            "estimated_diameter_min": 55.5334911581,
            "estimated_diameter_max": 124.1766612574
        },
        "miles": {
            "estimated_diameter_min": 0.0345069009,
            "estimated_diameter_max": 0.0771597762
        },
        "feet": {
            "estimated_diameter_min": 182.1964991311,
            "estimated_diameter_max": 407.4037573197
        }
    },
    "is_potentially_hazardous_asteroid": false,
    "close_approach_data": [
        {
            "close_approach_date": "2017-10-15",
            "close_approach_date_full": "2017-Oct-15 11:16",
            "epoch_date_close_approach": 1508066160000,
            "relative_velocity": {
                "kilometers_per_second": "19.6976783383",
                "kilometers_per_hour": "70911.6420179671",
                "miles_per_hour": "44061.7366749974"
            },
            "miss_distance": {
                "astronomical": "0.1349136927",
                "lunar": "52.4814264603",
                "kilometers": "20182801.061754549",
                "miles": "12541011.0453648162"
            },
            "orbiting_body": "Earth"
        }
    ],
    "orbital_data": {
        "orbit_id": "3",
        "orbit_determination_date": "2017-10-30 07:39:08",
        "first_observation_date": "2017-10-24",
        "last_observation_date": "2017-10-29",
        "data_arc_in_days": 5,
        "observations_used": 31,
        "orbit_uncertainty": "9",
        "minimum_orbit_intersection": ".0860471",
        "jupiter_tisserand_invariant": "4.276",
        "epoch_osculation": "2458053.5",
        "eccentricity": ".6592582406811733",
        "semi_major_axis": "1.485468193818492",
        "inclination": "15.77288173940505",
        "ascending_node_longitude": "43.19811686693008",
        "orbital_period": "661.2922954069376",
        "perihelion_distance": ".5061610457738727",
        "perihelion_argument": "236.9198565097613",
        "aphelion_distance": "2.464775341863111",
        "perihelion_time": "2457987.989535582460",
        "mean_anomaly": "35.66315130860814",
        "mean_motion": ".5443886198287972",
        "equinox": "J2000",
        "orbit_class": {
            "orbit_class_type": "APO",
            "orbit_class_description": "Near-Earth asteroid orbits which cross the Earth’s orbit similar to that of 1862 Apollo",
            "orbit_class_range": "a (semi-major axis) > 1.0 AU; q (perihelion) < 1.017 AU"
        }
    },
    "is_sentry_object": false
}